ONEWEB-0512             
1 54130U 22138T   24342.50980720  .00000043  00000+0  74590-4 0  9990
2 54130  87.9189  55.6778 0001733  84.7803 275.3527 13.19725955104259
ONEWEB-0513             
1 54131U 22138U   24341.94987125 -.00000954  00000+0 -24159-2 0  9991
2 54131  87.9189  55.7795 0001891  72.7875 287.3465 13.19711600104066
ONEWEB-0514             
1 54132U 22138V   24342.14651560  .00000061  00000+0  11920-3 0  9996
2 54132  87.9183  55.7292 0001835 101.3305 258.8034 13.19725497104220
ONEWEB-0515             
1 54133U 22138W   24342.38220682 -.00004443  00000+0 -10961-1 0  9992
2 54133  87.9265  25.1895 0001953 113.4227 246.7112 13.20793408106673
ONEWEB-0516             
1 54134U 22138X   24341.51468476  .00000042  00000+0  73606-4 0  9999
2 54134  87.9191  55.8779 0001600  98.7887 261.3427 13.19721960104143
ONEWEB-0517             
1 54135U 22138Y   24342.02489577  .00000073  00000+0  15104-3 0  9994
2 54135  87.9182  55.7492 0002134  96.9116 263.2260 13.19727138104210
ONEWEB-0518             
1 54136U 22138Z   24342.49874556 -.00000002  00000+0 -37642-4 0  9997
2 54136  87.9188  55.6787 0001862  99.8371 260.2972 13.19725925104270
ONEWEB-0519             
1 54137U 22138AA  24342.14494071  .00000124  00000+0  27628-3 0  9995
2 54137  87.9181  55.7197 0002031  97.5404 262.5959 13.19727338104237
